OBJECT_NAME,OBJECT_ID,EPOCH,MEAN_MOTION,ECCENTRICITY,INCLINATION,RA_OF_ASC_NODE,ARG_OF_PERICENTER,MEAN_ANOMALY,EPHEMERIS_TYPE,CLASSIFICATION_TYPE,NORAD_CAT_ID,ELEMENT_SET_NO,REV_AT_EPOCH,BSTAR,MEAN_MOTION_DOT,MEAN_MOTION_DDOT
CINEMA-3 (KHUSAT-2),2013-066L,2026-06-13T05:12:16.264224,14.78291086,.00887703,97.8406,76.5155,224.5212,134.8844,0,U,39426,999,67386,.1304071E-3,.955E-5,0
TRITON-1,2013-066M,2026-06-13T05:50:57.756192,14.81694453,.00883584,97.8252,74.1405,246.9737,112.2139,0,U,39427,999,67350,.28944009E-3,.2381E-4,0
DELFI-N3XT,2013-066N,2026-06-13T05:29:57.027264,14.95044316,.00733967,97.8342,84.5446,219.1264,140.4636,0,U,39428,999,67403,.41858593E-3,.4771E-4,0
GOMX-1,2013-066Q,2026-06-13T07:18:39.708864,14.69446026,.01302047,97.6489,5.0132,89.8856,271.7270,0,U,39430,999,66934,.27199428E-3,.1784E-4,0
BRITE-PL1 (LEM),2013-066R,2026-06-13T06:19:00.936192,14.51367261,.01904218,97.7959,276.8794,23.8510,337.1367,0,U,39431,999,66336,.79991209E-4,.354E-5,0
ICUBE-1,2013-066S,2026-06-12T22:19:18.425568,15.25742804,.00156292,97.5682,149.5441,354.2368,5.8687,0,U,39432,999,68376,.54104913E-3,.13789E-3,0
VELOX-PII,2013-066Y,2026-06-12T19:30:36.704448,14.93086571,.0052782,97.8739,115.1717,359.4568,0.6584,0,U,39438,999,67718,.40378356E-3,.4261E-4,0
CUBEBUG-2 (LO-74),2013-066AA,2026-06-12T20:13:56.821728,14.93728016,.00587552,97.8900,112.8027,43.0424,317.5369,0,U,39440,999,67634,.41876799E-3,.4525E-4,0
NEE-02 KRYSAOR,2013-066AB,2026-06-13T07:19:40.052352,14.86602186,.00677256,97.8891,103.5477,82.6389,278.2517,0,U,39441,999,67562,.26596765E-3,.2401E-4,0
FUNCUBE-1 (AO-73),2013-066AE,2026-06-13T03:29:24.007200,15.09441691,.00353168,97.8264,135.5066,215.1980,144.6915,0,U,39444,999,67905,.44671393E-3,.7185E-4,0
HINCUBE,2013-066AF,2026-06-13T04:07:32.366496,15.08237694,.00317196,97.7964,132.6342,221.7916,138.0889,0,U,39445,999,67892,.39191902E-3,.6072E-4,0
UWE-3,2013-066AG,2026-06-13T03:19:14.309184,14.96993972,.00482177,97.8688,120.1848,334.6375,25.2479,0,U,39446,999,67697,.39472256E-3,.4587E-4,0
CP8 (IPEX),2013-072K,2026-06-13T04:40:00.490368,15.08050687,.01640808,120.4651,283.2781,358.1794,1.8666,0,U,39471,999,11463,.31235302E-3,.6233E-4,0
COSMOS 2488 (RODNIK-S 7),2013-076A,2026-06-13T06:06:30.348288,12.42905547,.00208264,82.4830,171.1451,103.4073,256.9330,0,U,39483,999,56540,.3414705E-4,.15E-6,0
COSMOS 2489 (RODNIK-S 8),2013-076B,2026-06-13T07:26:35.479104,12.42879396,.00226479,82.4867,172.4878,103.2761,257.0847,0,U,39484,999,56546,.45941214E-4,.16E-6,0
COSMOS 2490 (RODNIK-S 9),2013-076C,2026-06-13T06:46:06.223872,12.42877913,.00226595,82.4813,170.5744,118.2176,242.1195,0,U,39485,999,56539,.78325456E-4,.21E-6,0
AIST-1 (RS41),2013-078C,2026-06-13T06:44:15.357984,14.96063105,.00154503,82.4157,274.6580,293.1900,66.7694,0,U,39492,999,67466,.15383823E-3,.1757E-4,0
KAZEOSAT 1,2014-024A,2026-06-13T06:35:53.298816,14.42078183,.00014125,98.3209,236.8193,76.7080,283.4268,0,U,39731,999,63799,.23143121E-4,.33E-6,0
COSMOS 2496 (RODNIK-S 10),2014-028A,2026-06-13T07:40:51.950208,12.42878536,.00213068,82.4441,111.1527,86.7759,273.5758,0,U,39761,999,54703,-.37118347E-4,.5E-7,0
COSMOS 2497 (RODNIK-S 11),2014-028B,2026-06-13T07:05:20.471712,12.42894202,.00218831,82.4489,112.8564,82.1530,278.2033,0,U,39762,999,54703,.36415424E-4,.15E-6,0
COSMOS 2498 (RODNIK-S 12),2014-028C,2026-06-13T06:33:28.515744,12.42980231,.00225891,82.4449,111.3591,81.8105,278.5536,0,U,39763,999,54706,.52399417E-4,.17E-6,0
COSMOS 2499 (RS47),2014-028E,2026-06-13T05:21:58.310784,12.82902490,.0231546,82.4496,255.1027,11.2429,349.3722,0,U,39765,999,56451,-.14971677E-4,.7E-7,0
HODOYOSHI-4,2014-033B,2026-06-13T06:26:49.002144,14.88119846,.00227454,97.5452,349.2805,322.0140,37.9473,0,U,40011,999,64822,.16306602E-3,.1455E-4,0
UNISAT-6,2014-033C,2026-06-13T05:36:29.290176,14.88226304,.00463827,97.7869,317.0154,81.9957,278.6519,0,U,40012,999,64557,.33591355E-3,.3106E-4,0
DEIMOS-2,2014-033D,2026-06-13T07:08:51.140832,14.93715081,.00018172,97.5845,38.9238,50.4462,309.6918,0,U,40013,999,63714,.66405392E-4,.648E-5,0
BUGSAT-1 (TITA),2014-033E,2026-06-13T06:32:57.894720,15.15547363,.00277419,98.0426,256.5918,191.9477,168.1100,0,U,40014,999,65524,.41963678E-3,.7961E-4,0
SAUDISAT 4,2014-033G,2026-06-13T03:05:20.060160,14.79539677,.00462403,97.7577,310.4039,86.7938,273.8563,0,U,40016,999,64547,.91929658E-4,.648E-5,0
APRIZESAT 9,2014-033J,2026-06-13T06:30:04.599648,14.74209484,.00654096,97.9055,297.5653,211.8664,147.8580,0,U,40018,999,64298,.97311318E-4,.612E-5,0
BRITE-CA1 (TORONTO),2014-033L,2026-06-12T21:26:09.507840,14.72671132,.00773049,97.9733,292.9004,291.0150,68.2801,0,U,40020,999,64158,.10400189E-3,.64E-5,0
