{"_default": { "22": {"norad_id": "40012", "name": "UNISAT 6", "tle1": "1 40012U 14033C   26164.23367234  .00003106  00000-0  33591-3 0  9991", "tle2": "2 40012  97.7869 317.0154 0046383  81.9957 278.6519 14.88226304645572", "object_type": "PAYLOAD", "criticality_score": 9.0, "last_updated": "2026-06-13T17:29:25.184973+00:00", "maneuver_count": 0, "owner": "N/A"}, "23": {"norad_id": "39492", "name": "AIST 1", "tle1": "1 39492U 13078C   26164.28073331  .00001757  00000-0  15384-3 0  9996", "tle2": "2 39492  82.4157 274.6580 0015450 293.1900  66.7694 14.96063105674669", "object_type": "PAYLOAD", "criticality_score": 9.0, "last_updated": "2026-06-13T17:29:25.184973+00:00", "maneuver_count": 0, "owner": "N/A"}, "24": {"norad_id": "39445", "name": "HINCUBE", "tle1": "1 39445U 13066AF  26164.17190239  .00006072  00000-0  39192-3 0  9994", "tle2": "2 39445  97.7964 132.6342 0031720 221.7916 138.0889 15.08237694678925", "object_type": "PAYLOAD", "criticality_score": 9.0, "last_updated": "2026-06-13T17:29:25.184973+00:00", "maneuver_count": 0, "owner": "N/A"}, "25": {"norad_id": "39444", "name": "FUNCUBE 1", "tle1": "1 39444U 13066AE  26164.14541675  .00007185  00000-0  44671-3 0  9998", "tle2": "2 39444  97.8264 135.5066 0035317 215.1980 144.6915 15.09441691679050", "object_type": "PAYLOAD", "criticality_score": 9.0, "last_updated": "2026-06-13T17:29:25.184973+00:00", "maneuver_count": 0, "owner": "N/A"}, "54": {"norad_id": "40014", "name": "BUGSAT 1", "tle1": "1 40014U 14033E   26164.27289230  .00007961  00000-0  41964-3 0  9992", "tle2": "2 40014  98.0426 256.5918 0027742 191.9477 168.1100 15.15547363655245", "object_type": "PAYLOAD", "criticality_score": 9.0, "last_updated": "2026-06-13T17:29:25.184973+00:00", "maneuver_count": 0, "owner": "N/A"}, "56": {"norad_id": "39446", "name": "UWE-3", "tle1": "1 39446U 13066AG  26164.13836006  .00004587  00000-0  39472-3 0  9990", "tle2": "2 39446  97.8688 120.1848 0048218 334.6375  25.2479 14.96993972676975", "object_type": "PAYLOAD", "criticality_score": 9.0, "last_updated": "2026-06-13T17:29:25.184973+00:00", "maneuver_count": 0, "owner": "N/A"}, "87": {"norad_id": "39440", "name": "CUBEBUG 2", "tle1": "1 39440U 13066AA  26163.84301877  .00004525  00000-0  41877-3 0  9998", "tle2": "2 39440  97.8900 112.8027 0058755  43.0424 317.5369 14.93728016676344", "object_type": "PAYLOAD", "criticality_score": 9.0, "last_updated": "2026-06-13T17:29:25.184973+00:00", "maneuver_count": 0, "owner": "N/A"}, "88": {"norad_id": "39430", "name": "GOMX 1", "tle1": "1 39430U 13066Q   26164.30462626  .00001784  00000-0  27199-3 0  9994", "tle2": "2 39430  97.6489   5.0132 0130205  89.8856 271.7270 14.69446026669346", "object_type": "PAYLOAD", "criticality_score": 9.0, "last_updated": "2026-06-13T17:29:25.184973+00:00", "maneuver_count": 0, "owner": "N/A"}, "111": {"norad_id": "39441", "name": "NEE 02 KRYSAOR", "tle1": "1 39441U 13066AB  26164.30532468  .00002401  00000-0  26597-3 0  9996", "tle2": "2 39441  97.8891 103.5477 0067726  82.6389 278.2517 14.86602186675626", "object_type": "PAYLOAD", "criticality_score": 9.0, "last_updated": "2026-06-13T17:29:25.184973+00:00", "maneuver_count": 0, "owner": "N/A"}, "112": {"norad_id": "39438", "name": "VELOX-P 2", "tle1": "1 39438U 13066Y   26163.81292482  .00004261  00000-0  40378-3 0  9995", "tle2": "2 39438  97.8739 115.1717 0052782 359.4568   0.6584 14.93086571677185", "object_type": "PAYLOAD", "criticality_score": 9.0, "last_updated": "2026-06-13T17:29:25.184973+00:00", "maneuver_count": 0, "owner": "N/A"}, "113": {"norad_id": "39432", "name": "ICUBE 1", "tle1": "1 39432U 13066S   26163.93007437  .00013789  00000-0  54105-3 0  9994", "tle2": "2 39432  97.5682 149.5441 0015629 354.2368   5.8687 15.25742804683764", "object_type": "PAYLOAD", "criticality_score": 9.0, "last_updated": "2026-06-13T17:29:25.184973+00:00", "maneuver_count": 0, "owner": "N/A"}, "114": {"norad_id": "39431", "name": "BRITE-PL", "tle1": "1 39431U 13066R   26164.26320528  .00000354  00000-0  79991-4 0  9994", "tle2": "2 39431  97.7959 276.8794 0190422  23.8510 337.1367 14.51367261663368", "object_type": "PAYLOAD", "criticality_score": 9.0, "last_updated": "2026-06-13T17:29:25.184973+00:00", "maneuver_count": 0, "owner": "N/A"}, "115": {"norad_id": "39428", "name": "DELFI-N3XT", "tle1": "1 39428U 13066N   26164.22913226  .00004771  00000-0  41859-3 0  9997", "tle2": "2 39428  97.8342  84.5446 0073397 219.1264 140.4636 14.95044316674037", "object_type": "PAYLOAD", "criticality_score": 9.0, "last_updated": "2026-06-13T17:29:25.184973+00:00", "maneuver_count": 0, "owner": "N/A"}, "116": {"norad_id": "39426", "name": "CINEMA 3", "tle1": "1 39426U 13066L   26164.21685491  .00000955  00000-0  13041-3 0  9996", "tle2": "2 39426  97.8406  76.5155 0088770 224.5212 134.8844 14.78291086673865", "object_type": "PAYLOAD", "criticality_score": 9.0, "last_updated": "2026-06-13T17:29:25.184973+00:00", "maneuver_count": 0, "owner": "N/A"}, "143": {"norad_id": "39427", "name": "TRITON 1", "tle1": "1 39427U 13066M   26164.24372403  .00002381  00000-0  28944-3 0  9999", "tle2": "2 39427  97.8252  74.1405 0088358 246.9737 112.2139 14.81694453673506", "object_type": "PAYLOAD", "criticality_score": 9.0, "last_updated": "2026-06-13T17:29:25.184973+00:00", "maneuver_count": 0, "owner": "N/A"}, "200": {"norad_id": "39471", "name": "IPEX", "tle1": "1 39471U 13072K   26164.19445012  .00006233  00000-0  31235-3 0  9993", "tle2": "2 39471 120.4651 283.2781 0164081 358.1794   1.8666 15.08050687114635", "object_type": "PAYLOAD", "criticality_score": 9.0, "last_updated": "2026-06-13T17:29:25.184973+00:00", "maneuver_count": 0, "owner": "N/A"}, "271": {"norad_id": "39731", "name": "KAZEOSAT 1", "tle1": "1 39731U 14024A   26164.27492244  .00000033  00000-0  23143-4 0  9990", "tle2": "2 39731  98.3209 236.8193 0001413  76.7080 283.4268 14.42078183637990", "object_type": "PAYLOAD", "criticality_score": 9.0, "last_updated": "2026-06-13T17:29:25.184973+00:00", "maneuver_count": 0, "owner": "N/A"}, "273": {"norad_id": "40020", "name": "BRITE TORONTO", "tle1": "1 40020U 14033L   26163.89316560  .00000640  00000-0  10400-3 0  9991", "tle2": "2 40020  97.9733 292.9004 0077305 291.0150  68.2801 14.72671132641585", "object_type": "PAYLOAD", "criticality_score": 9.0, "last_updated": "2026-06-13T17:29:25.184973+00:00", "maneuver_count": 0, "owner": "N/A"}, "315": {"norad_id": "39765", "name": "COSMOS 2499", "tle1": "1 39765U 14028E   26164.22359156  .00000007  00000-0 -14972-4 0  9992", "tle2": "2 39765  82.4496 255.1027 0231546  11.2429 349.3722 12.82902490564515", "object_type": "PAYLOAD", "criticality_score": 9.0, "last_updated": "2026-06-13T17:29:25.184973+00:00", "maneuver_count": 0, "owner": "N/A"}, "316": {"norad_id": "40016", "name": "SAUDISAT 4", "tle1": "1 40016U 14033G   26164.12870440  .00000648  00000-0  91930-4 0  9991", "tle2": "2 40016  97.7577 310.4039 0046240  86.7938 273.8563 14.79539677645470", "object_type": "PAYLOAD", "criticality_score": 9.0, "last_updated": "2026-06-13T17:29:25.184973+00:00", "maneuver_count": 0, "owner": "N/A"}, "372": {"norad_id": "40018", "name": "APRIZESAT 9", "tle1": "1 40018U 14033J   26164.27088657  .00000612  00000-0  97311-4 0  9990", "tle2": "2 40018  97.9055 297.5653 0065410 211.8664 147.8580 14.74209484642986", "object_type": "PAYLOAD", "criticality_score": 9.0, "last_updated": "2026-06-13T17:29:25.184973+00:00", "maneuver_count": 0, "owner": "N/A"}, "420": {"norad_id": "40011", "name": "HODOYOSHI 4", "tle1": "1 40011U 14033B   26164.26862271  .00001455  00000-0  16307-3 0  9995", "tle2": "2 40011  97.5452 349.2805 0022745 322.0140  37.9473 14.88119846648228", "object_type": "PAYLOAD", "criticality_score": 9.0, "last_updated": "2026-06-13T17:29:25.184973+00:00", "maneuver_count": 0, "owner": "N/A"}, "595": {"norad_id": "39483", "name": "COSMOS 2488", "tle1": "1 39483U 13076A   26164.25451792  .00000015  00000-0  34147-4 0  9997", "tle2": "2 39483  82.4830 171.1451 0020826 103.4073 256.9330 12.42905547565407", "object_type": "PAYLOAD", "criticality_score": 9.0, "last_updated": "2026-06-13T17:29:25.184973+00:00", "maneuver_count": 0, "owner": "N/A"}, "596": {"norad_id": "39484", "name": "COSMOS 2489", "tle1": "1 39484U 13076B   26164.31013286  .00000016  00000-0  45941-4 0  9992", "tle2": "2 39484  82.4867 172.4878 0022648 103.2761 257.0847 12.42879396565464", "object_type": "PAYLOAD", "criticality_score": 9.0, "last_updated": "2026-06-13T17:29:25.184973+00:00", "maneuver_count": 0, "owner": "N/A"}, "597": {"norad_id": "39485", "name": "COSMOS 2490", "tle1": "1 39485U 13076C   26164.28201648  .00000021  00000-0  78325-4 0  9998", "tle2": "2 39485  82.4813 170.5744 0022659 118.2176 242.1195 12.42877913565391", "object_type": "PAYLOAD", "criticality_score": 9.0, "last_updated": "2026-06-13T17:29:25.184973+00:00", "maneuver_count": 0, "owner": "N/A"}, "598": {"norad_id": "39763", "name": "COSMOS 2498", "tle1": "1 39763U 14028C   26164.27324671  .00000017  00000-0  52399-4 0  9994", "tle2": "2 39763  82.4449 111.3591 0022589  81.8105 278.5536 12.42980231547061", "object_type": "PAYLOAD", "criticality_score": 9.0, "last_updated": "2026-06-13T17:29:25.184973+00:00", "maneuver_count": 0, "owner": "N/A"}, "599": {"norad_id": "39762", "name": "COSMOS 2497", "tle1": "1 39762U 14028B   26164.29537583  .00000015  00000-0  36415-4 0  9992", "tle2": "2 39762  82.4489 112.8564 0021883  82.1530 278.2033 12.42894202547030", "object_type": "PAYLOAD", "criticality_score": 9.0, "last_updated": "2026-06-13T17:29:25.184973+00:00", "maneuver_count": 0, "owner": "N/A"}, "600": {"norad_id": "39761", "name": "COSMOS 2496", "tle1": "1 39761U 14028A   26164.32004572  .00000005  00000-0 -37118-4 0  9993", "tle2": "2 39761  82.4441 111.1527 0021307  86.7759 273.5758 12.42878536547036", "object_type": "PAYLOAD", "criticality_score": 9.0, "last_updated": "2026-06-13T17:29:25.184973+00:00", "maneuver_count": 0, "owner": "N/A"}, "665": {"norad_id": "40013", "name": "DEIMOS 2", "tle1": "1 40013U 14033D   26164.29781413  .00000648  00000-0  66405-4 0  9996", "tle2": "2 40013  97.5845  38.9238 0001817  50.4462 309.6918 14.93715081637145", "object_type": "PAYLOAD", "criticality_score": 9.0, "last_updated": "2026-06-13T17:29:25.184973+00:00", "maneuver_count": 0, "owner": "N/A"}}}